*******************************************************************************
Ephemeris / WWW_USER Mon Jul 15 19:03:49 2024 Pasadena, USA      / Horizons    
*******************************************************************************
Target body name: (2018 RC)                       {source: JPL#21}
Center body name: Earth (399)                     {source: DE441}
Center-site name: Gemini South Obs., Cerro Pachon
*******************************************************************************
Start time      : A.D. 2018-Oct-13 23:00:00.0000 UT      
Stop  time      : A.D. 2018-Oct-14 09:57:00.0000 UT      
Step-size       : 1 minutes
*******************************************************************************
Target pole/equ : undefined
Target radii    : undefined                                                    
Center geodetic : 289.2634, -30.2406227, 2.71233  {E-lon(deg),Lat(deg),Alt(km)}
Center cylindric: 289.2634,5517.21435,-3194.81213 {E-lon(deg),Dxy(km),Dz(km)}
Center pole/equ : ITRF93                          {East-longitude positive}
Center radii    : 6378.137, 6378.137, 6356.752 km {Equator_a, b, pole_c}       
Target primary  : Sun
Vis. interferer : MOON (R_eq= 1737.400) km        {source: DE441}
Rel. light bend : Sun                             {source: DE441}
Rel. lght bnd GM: 1.3271E+11 km^3/s^2                                          
Small-body perts: Yes                             {source: SB441-N16}
Atmos refraction: NO (AIRLESS)
RA format       : HMS
Time format     : CAL 
Calendar mode   : Mixed Julian/Gregorian
RTS-only print  : NO       
EOP file        : eop.240715.p241008                                           
EOP coverage    : DATA-BASED 1962-JAN-20 TO 2024-JUL-15. PREDICTS-> 2024-OCT-07
Units conversion: 1 au= 149597870.700 km, c= 299792.458 km/s, 1 day= 86400.0 s 
Table cut-offs 1: Elevation (-90.0deg=NO ),Airmass (>38.000=NO), Daylight (YES)
Table cut-offs 2: Solar elongation (  0.0,180.0=NO ),Local Hour Angle( 0.0=NO )
Table cut-offs 3: RA/DEC angular rate (     0.0=NO )                           
*******************************************************************************
Initial IAU76/J2000 heliocentric ecliptic osculating elements (au, days, deg.):
  EPOCH=  2458369.5 ! 2018-Sep-08.00 (TDB)         Residual RMS= .84866        
   EC= .2426621660028976   QR= .647471518312811    TP= 2458473.8617576878      
   OM= 346.8893436915528   W=  145.8737085184167   IN= 1.612045057594462       
  Equivalent ICRF heliocentric cartesian coordinates (au, au/d):
   X= 9.781363708094483E-01  Y=-2.377942828764822E-01  Z=-1.040448782093900E-01
  VX= 1.501011538102481E-03 VY= 1.393070215815854E-02 VZ= 6.509326736836346E-03
Asteroid physical parameters (km, seconds, rotational period in hours):        
   GM= n.a.                RAD= n.a.               ROTPER= .16548              
   H= 24.93                G= .150                 B-V= n.a.                   
                           ALBEDO= n.a.            STYP= n.a.                  
*******************************************************************************
 Date__(UT)__HR:MN     R.A._________(ICRF)_________DEC
******************************************************
$$SOE
 2018-Oct-13 23:00 Cm  13 08 21.688111 +01 14 08.46364
 2018-Oct-13 23:01 Cm  13 08 21.676978 +01 14 08.31223
 2018-Oct-13 23:02 Cm  13 08 21.665933 +01 14 08.16081
 2018-Oct-13 23:03 Cm  13 08 21.654975 +01 14 08.00939
 2018-Oct-13 23:04 Cm  13 08 21.644105 +01 14 07.85797
 2018-Oct-13 23:05 Cm  13 08 21.633322 +01 14 07.70654
 2018-Oct-13 23:06 Cm  13 08 21.622625 +01 14 07.55510
 2018-Oct-13 23:07 Cm  13 08 21.612016 +01 14 07.40366
 2018-Oct-13 23:08 Cm  13 08 21.601494 +01 14 07.25222
 2018-Oct-13 23:09 Cm  13 08 21.591058 +01 14 07.10077
 2018-Oct-13 23:10 Cm  13 08 21.580710 +01 14 06.94932
 2018-Oct-13 23:11 Cm  13 08 21.570448 +01 14 06.79786
 2018-Oct-13 23:12 Cm  13 08 21.560272 +01 14 06.64639
 2018-Oct-13 23:13 Cm  13 08 21.550183 +01 14 06.49493
 2018-Oct-13 23:14 Cm  13 08 21.540181 +01 14 06.34345
 2018-Oct-13 23:15 Cm  13 08 21.530265 +01 14 06.19198
 2018-Oct-13 23:16 Cm  13 08 21.520435 +01 14 06.04050
 2018-Oct-13 23:17 Nm  13 08 21.510691 +01 14 05.88902
 2018-Oct-13 23:18 Nm  13 08 21.501033 +01 14 05.73753
 2018-Oct-13 23:19 Nm  13 08 21.491461 +01 14 05.58604
 2018-Oct-13 23:20 Nm  13 08 21.481975 +01 14 05.43454
 2018-Oct-13 23:21 Nm  13 08 21.472575 +01 14 05.28304
 2018-Oct-13 23:22 Nm  13 08 21.463261 +01 14 05.13154
 2018-Oct-13 23:23 Nm  13 08 21.454032 +01 14 04.98004
 2018-Oct-13 23:24 Nm  13 08 21.444888 +01 14 04.82853
 2018-Oct-13 23:25 Nm  13 08 21.435830 +01 14 04.67702
 2018-Oct-13 23:26 Nm  13 08 21.426856 +01 14 04.52551
 2018-Oct-13 23:27 Nm  13 08 21.417968 +01 14 04.37399
 2018-Oct-13 23:28 Nm  13 08 21.409165 +01 14 04.22247
 2018-Oct-13 23:29 Nm  13 08 21.400447 +01 14 04.07095
 2018-Oct-13 23:30 Nm  13 08 21.391814 +01 14 03.91943
 2018-Oct-13 23:31 Nm  13 08 21.383265 +01 14 03.76790
 2018-Oct-13 23:32 Nm  13 08 21.374801 +01 14 03.61637
 2018-Oct-13 23:33 Nm  13 08 21.366421 +01 14 03.46484
 2018-Oct-13 23:34 Nm  13 08 21.358125 +01 14 03.31331
 2018-Oct-13 23:35 Nm  13 08 21.349914 +01 14 03.16178
 2018-Oct-13 23:36 Nm  13 08 21.341786 +01 14 03.01024
 2018-Oct-13 23:37 Nm  13 08 21.333743 +01 14 02.85870
 2018-Oct-13 23:38 Nm  13 08 21.325783 +01 14 02.70716
 2018-Oct-13 23:39 Nm  13 08 21.317907 +01 14 02.55562
 2018-Oct-13 23:40 Nm  13 08 21.310114 +01 14 02.40408
 2018-Oct-13 23:41 Nm  13 08 21.302405 +01 14 02.25254
 2018-Oct-13 23:42 Nm  13 08 21.294779 +01 14 02.10099
 2018-Oct-13 23:43 Nm  13 08 21.287236 +01 14 01.94945
 2018-Oct-13 23:44 Nm  13 08 21.279776 +01 14 01.79790
 2018-Oct-13 23:45 Nm  13 08 21.272399 +01 14 01.64636
 2018-Oct-13 23:46 Am  13 08 21.265105 +01 14 01.49481
 2018-Oct-13 23:47 Am  13 08 21.257893 +01 14 01.34326
 2018-Oct-13 23:48 Am  13 08 21.250763 +01 14 01.19171
 2018-Oct-13 23:49 Am  13 08 21.243716 +01 14 01.04016
 2018-Oct-13 23:50 Am  13 08 21.236751 +01 14 00.88861
 2018-Oct-13 23:51 Am  13 08 21.229868 +01 14 00.73706
 2018-Oct-13 23:52 Am  13 08 21.223066 +01 14 00.58551
 2018-Oct-13 23:53 Am  13 08 21.216346 +01 14 00.43396
 2018-Oct-13 23:54 Am  13 08 21.209708 +01 14 00.28241
 2018-Oct-13 23:55 Am  13 08 21.203151 +01 14 00.13087
 2018-Oct-13 23:56 Am  13 08 21.196675 +01 13 59.97932
 2018-Oct-13 23:57 Am  13 08 21.190281 +01 13 59.82777
 2018-Oct-13 23:58 Am  13 08 21.183967 +01 13 59.67622
 2018-Oct-13 23:59 Am  13 08 21.177734 +01 13 59.52467
 2018-Oct-14 00:00 Am  13 08 21.171581 +01 13 59.37313
 2018-Oct-14 00:01 Am  13 08 21.165509 +01 13 59.22158
 2018-Oct-14 00:02 Am  13 08 21.159517 +01 13 59.07004
 2018-Oct-14 00:03 Am  13 08 21.153605 +01 13 58.91849
 2018-Oct-14 00:04 Am  13 08 21.147772 +01 13 58.76695
 2018-Oct-14 00:05 Am  13 08 21.142020 +01 13 58.61541
 2018-Oct-14 00:06 Am  13 08 21.136347 +01 13 58.46387
 2018-Oct-14 00:07 Am  13 08 21.130754 +01 13 58.31233
 2018-Oct-14 00:08 Am  13 08 21.125239 +01 13 58.16080
 2018-Oct-14 00:09 Am  13 08 21.119804 +01 13 58.00926
 2018-Oct-14 00:10 Am  13 08 21.114447 +01 13 57.85773
 2018-Oct-14 00:11 Am  13 08 21.109170 +01 13 57.70620
 2018-Oct-14 00:12 Am  13 08 21.103970 +01 13 57.55467
 2018-Oct-14 00:13 Am  13 08 21.098849 +01 13 57.40314
 2018-Oct-14 00:14 Am  13 08 21.093806 +01 13 57.25162
 2018-Oct-14 00:15  m  13 08 21.088841 +01 13 57.10009
 2018-Oct-14 00:16  m  13 08 21.083953 +01 13 56.94857
 2018-Oct-14 00:17  m  13 08 21.079144 +01 13 56.79706
 2018-Oct-14 00:18  m  13 08 21.074411 +01 13 56.64554
 2018-Oct-14 00:19  m  13 08 21.069756 +01 13 56.49403
 2018-Oct-14 00:20  m  13 08 21.065178 +01 13 56.34252
 2018-Oct-14 00:21  m  13 08 21.060676 +01 13 56.19101
 2018-Oct-14 00:22  m  13 08 21.056251 +01 13 56.03951
 2018-Oct-14 00:23  m  13 08 21.051902 +01 13 55.88801
 2018-Oct-14 00:24  m  13 08 21.047630 +01 13 55.73651
 2018-Oct-14 00:25  m  13 08 21.043433 +01 13 55.58502
 2018-Oct-14 00:26  m  13 08 21.039313 +01 13 55.43353
 2018-Oct-14 00:27  m  13 08 21.035268 +01 13 55.28204
 2018-Oct-14 00:28  m  13 08 21.031298 +01 13 55.13056
 2018-Oct-14 00:29  m  13 08 21.027403 +01 13 54.97908
 2018-Oct-14 00:30  m  13 08 21.023584 +01 13 54.82760
 2018-Oct-14 00:31  m  13 08 21.019839 +01 13 54.67613
 2018-Oct-14 00:32  m  13 08 21.016169 +01 13 54.52466
 2018-Oct-14 00:33  m  13 08 21.012573 +01 13 54.37320
 2018-Oct-14 00:34  m  13 08 21.009051 +01 13 54.22174
 2018-Oct-14 00:35  m  13 08 21.005603 +01 13 54.07028
 2018-Oct-14 00:36  m  13 08 21.002229 +01 13 53.91883
 2018-Oct-14 00:37  m  13 08 20.998928 +01 13 53.76738
 2018-Oct-14 00:38  m  13 08 20.995701 +01 13 53.61594
 2018-Oct-14 00:39  m  13 08 20.992546 +01 13 53.46450
 2018-Oct-14 00:40  m  13 08 20.989465 +01 13 53.31307
 2018-Oct-14 00:41  m  13 08 20.986456 +01 13 53.16164
 2018-Oct-14 00:42  m  13 08 20.983519 +01 13 53.01022
 2018-Oct-14 00:43  m  13 08 20.980655 +01 13 52.85880
 2018-Oct-14 00:44  m  13 08 20.977862 +01 13 52.70739
 2018-Oct-14 00:45  m  13 08 20.975141 +01 13 52.55598
 2018-Oct-14 00:46  m  13 08 20.972492 +01 13 52.40458
 2018-Oct-14 00:47  m  13 08 20.969914 +01 13 52.25318
 2018-Oct-14 00:48  m  13 08 20.967407 +01 13 52.10179
 2018-Oct-14 00:49  m  13 08 20.964970 +01 13 51.95040
 2018-Oct-14 00:50  m  13 08 20.962604 +01 13 51.79902
 2018-Oct-14 00:51  m  13 08 20.960309 +01 13 51.64765
 2018-Oct-14 00:52  m  13 08 20.958083 +01 13 51.49628
 2018-Oct-14 00:53  m  13 08 20.955928 +01 13 51.34491
 2018-Oct-14 00:54  m  13 08 20.953842 +01 13 51.19356
 2018-Oct-14 00:55  m  13 08 20.951825 +01 13 51.04220
 2018-Oct-14 00:56  m  13 08 20.949877 +01 13 50.89086
 2018-Oct-14 00:57  m  13 08 20.947999 +01 13 50.73952
 2018-Oct-14 00:58  m  13 08 20.946188 +01 13 50.58819
 2018-Oct-14 00:59  m  13 08 20.944447 +01 13 50.43686
 2018-Oct-14 01:00  m  13 08 20.942773 +01 13 50.28554
 2018-Oct-14 01:01  m  13 08 20.941167 +01 13 50.13423
 2018-Oct-14 01:02  m  13 08 20.939629 +01 13 49.98292
